NORAD_CAT_ID,OBJECT_NAME,OBJECT_TYPE,EPOCH,MEAN_MOTION,ECCENTRICITY,INCLINATION,RA_OF_ASC_NODE,ARG_OF_PERICENTER,MEAN_ANOMALY,BSTAR,MEAN_MOTION_DOT,MEAN_MOTION_DDOT,TLE_LINE0,TLE_LINE1,TLE_LINE2,SEMIMAJOR_AXIS,PERIOD,APOGEE,PERIGEE,DECAYED
53734.0,STARLINK-4616,PAYLOAD,2022-11-29 14:00:01,15.08823825,0.0001771,53.2154,223.7599,45.7548,199.952,0.00029097,4.344e-05,0.0,0 STARLINK-4616,1 53734U 22107AL  22333.58335648  .00004344  00000-0  29097-3 0  9994,2 53734  53.2154 223.7599 0001771  45.7548 199.9520 15.08823825  1301,6917.93,95.439,541.02,538.57,0.0
53734.0,STARLINK-4616,PAYLOAD,2022-11-29 22:00:00,15.08825099,0.0001881,53.2154,222.2651,43.007,214.217,-0.00083019,-0.00013471,0.0,0 STARLINK-4616,1 53734U 22107AL  22333.91667824 -.00013471  00000-0 -83019-3 0  9992,2 53734  53.2154 222.2651 0001881  43.0070 214.2170 15.08825099  1304,6917.926,95.438,541.092,538.49,0.0
53734.0,STARLINK-4616,PAYLOAD,2022-11-30 06:00:00,15.08830793,0.0001933,53.215,220.7688,40.8928,227.899,-0.0001235,-2.253e-05,0.0,0 STARLINK-4616,1 53734U 22107AL  22334.25001157 -.00002253  00000-0 -12350-3 0  9997,2 53734  53.2150 220.7688 0001933  40.8928 227.8990 15.08830793 13476,6917.909000000002,95.438,541.111,538.436,0.0
53734.0,STARLINK-4616,PAYLOAD,2022-11-30 14:00:01,15.08810235,0.0001768,53.2153,219.2712,47.7944,232.6503,0.003244,0.00051677,0.0,0 STARLINK-4616,1 53734U 22107AL  22334.58335648  .00051677  00000-0  32440-2 0  9991,2 53734  53.2153 219.2712 0001768  47.7944 232.6503 15.08810235  1302,6917.971,95.439,541.059,538.613,0.0
53734.0,STARLINK-4616,PAYLOAD,2022-11-30 22:00:00,15.08854174,0.0001866,53.2163,217.7781,48.5252,243.4368,-0.0018255,-0.00029235,0.0,0 STARLINK-4616,1 53734U 22107AL  22334.91667824 -.00029235  00000-0 -18255-2 0  9997,2 53734  53.2163 217.7781 0001866  48.5252 243.4368 15.08854174  1301,6917.837,95.437,540.993,538.411,0.0
53734.0,STARLINK-4616,PAYLOAD,2022-12-01 14:00:01,15.08808217,0.0001791,53.215,214.7815,46.8705,268.3024,0.0034061,0.00054291,0.0,0 STARLINK-4616,1 53734U 22107AL  22335.58334491  .00054291  00000-0  34061-2 0  9993,2 53734  53.2150 214.7815 0001791  46.8705 268.3024 15.08808217  1305,6917.978,95.44,541.082,538.604,0.0
53734.0,STARLINK-4616,PAYLOAD,2022-12-01 22:00:00,15.0884306,0.0001979,53.2152,213.2867,43.9705,282.7787,-0.00051526,-8.48e-05,0.0,0 STARLINK-4616,1 53734U 22107AL  22335.91667824 -.00008480  00000-0 -51526-3 0  9996,2 53734  53.2152 213.2867 0001979  43.9705 282.7787 15.08843060 13724,6917.871,95.437,541.105,538.367,0.0
53734.0,STARLINK-4616,PAYLOAD,2022-12-02 14:00:01,15.08805346,0.0001828,53.2153,210.2923,45.7883,304.1582,0.0031816,0.00050664,0.0,0 STARLINK-4616,1 53734U 22107AL  22336.58334491  .00050664  00000-0  31816-2 0  9999,2 53734  53.2153 210.2923 0001828  45.7883 304.1582 15.08805346  1303,6917.986,95.44,541.116,538.587,0.0
53734.0,STARLINK-4616,PAYLOAD,2022-12-02 22:00:00,15.088378099999998,0.0002036,53.2154,208.7976,42.7969,318.7243,-0.00067894,-0.00011077,0.0,0 STARLINK-4616,1 53734U 22107AL  22336.91667824 -.00011077  00000-0 -67894-3 0  9998,2 53734  53.2154 208.7976 0002036  42.7969 318.7243 15.08837810  1304,6917.887,95.438,541.161,538.344,0.0
53734.0,STARLINK-4616,PAYLOAD,2022-12-03 08:00:01,15.08863521,0.000195,53.2157,206.9263,41.6918,64.3132,-0.0046665,-0.00073844,0.0,0 STARLINK-4616,1 53734U 22107AL  22337.33334491 -.00073844  00000-0 -46665-2 0  9998,2 53734  53.2157 206.9263 0001950  41.6918  64.3132 15.08863521 13944,6917.808000000001,95.436,541.0219999999998,538.325,0.0
53734.0,STARLINK-4616,PAYLOAD,2022-12-03 14:00:01,15.08798126,0.0001848,53.2157,205.8032,44.5218,340.1877,0.0028804,0.00045799,0.0,0 STARLINK-4616,1 53734U 22107AL  22337.58334491  .00045799  00000-0  28804-2 0  9996,2 53734  53.2157 205.8032 0001848  44.5218 340.1877 15.08798126  1303,6918.0080000000025,95.44,541.1519999999998,538.595,0.0
53734.0,STARLINK-4616,PAYLOAD,2022-12-03 22:00:00,15.0882679,0.0002068,53.2158,204.3086,41.7489,354.5256,-0.00059963,-9.815e-05,0.0,0 STARLINK-4616,1 53734U 22107AL  22337.91667824 -.00009815  00000-0 -59963-3 0  9994,2 53734  53.2158 204.3086 0002068  41.7489 354.5256 15.08826790  1300,6917.920999999999,95.438,541.216,538.355,0.0
53734.0,STARLINK-4616,PAYLOAD,2022-12-04 14:00:01,15.08822015,0.0001939,53.216,201.3142,46.5491,12.8879,0.002524,0.00040091,0.0,0 STARLINK-4616,1 53734U 22107AL  22338.58334491  .00040091  00000-0  25240-2 0  9998,2 53734  53.2160 201.3142 0001939  46.5491  12.8879 15.08822015  1306,6917.935,95.439,541.1419999999998,538.4590000000002,0.0
53734.0,STARLINK-4616,PAYLOAD,2022-12-04 22:00:00,15.08845109,0.0002141,53.216,199.8196,43.3401,27.6879,-0.00033514,-5.619e-05,0.0,0 STARLINK-4616,1 53734U 22107AL  22338.91667824 -.00005619  00000-0 -33514-3 0  9997,2 53734  53.2160 199.8196 0002141  43.3401  27.6879 15.08845109  1301,6917.865,95.437,541.211,538.249,0.0
53734.0,STARLINK-4616,PAYLOAD,2022-12-05 06:00:00,15.08867413,0.0002097,53.2158,198.3226,42.7875,39.8374,-0.0014939,-0.00024003,0.0,0 STARLINK-4616,1 53734U 22107AL  22339.25001157 -.00024003  00000-0 -14939-2 0  9993,2 53734  53.2158 198.3226 0002097  42.7875  39.8374 15.08867413 14237,6917.797,95.436,541.112,538.211,0.0
53734.0,STARLINK-4616,PAYLOAD,2022-12-05 14:00:01,15.08858057,0.0001956,53.216,196.8251,47.7225,46.5794,0.00013,1.782e-05,0.0,0 STARLINK-4616,1 53734U 22107AL  22339.58335648  .00001782  00000-0  13000-3 0  9990,2 53734  53.2160 196.8251 0001956  47.7225  46.5794 15.08858057  1307,6917.825,95.436,541.043,538.337,0.0
53734.0,STARLINK-4616,PAYLOAD,2022-12-05 21:31:59,15.08844787,0.0002005,53.2167,195.4163,42.8806,317.2342,0.00013272,1.825e-05,0.0,0 STARLINK-4616,1 53734U 22107AL  22339.89721485  .00001825  00000-0  13272-3 0  9991,2 53734  53.2167 195.4163 0002005  42.8806 317.2342 15.08844787 14337,6917.866,95.437,541.118,538.344,0.0
53734.0,STARLINK-4616,PAYLOAD,2022-12-06 07:04:19,15.08833403,0.0002094,53.2168,193.6324,43.8773,316.2385,4.9204e-05,4.95e-06,0.0,0 STARLINK-4616,1 53734U 22107AL  22340.29466562  .00000495  00000-0  49204-4 0  9996,2 53734  53.2168 193.6324 0002094  43.8773 316.2385 15.08833403 14394,6917.901,95.438,541.214,538.317,0.0
53734.0,STARLINK-4616,PAYLOAD,2022-12-06 15:01:14,15.08835714,0.0002121,53.2173,192.1457,47.0903,313.0266,-1.9483e-05,-5.98e-06,0.0,0 STARLINK-4616,1 53734U 22107AL  22340.62586773 -.00000598  00000-0 -19483-4 0  9992,2 53734  53.2173 192.1457 0002121  47.0903 313.0266 15.08835714 15079,6917.893,95.438,541.226,538.2909999999998,0.0
53734.0,STARLINK-4616,PAYLOAD,2022-12-06 22:58:11,15.08827082,0.0002092,53.2165,190.6588,45.2203,314.8959,-9.7833e-05,-1.844e-05,0.0,0 STARLINK-4616,1 53734U 22107AL  22340.95707774 -.00001844  00000-0 -97833-4 0  9994,2 53734  53.2165 190.6588 0002092  45.2203 314.8959 15.08827082 14490,6917.92,95.438,541.232,538.3380000000002,0.0
53734.0,STARLINK-4616,PAYLOAD,2022-12-07 06:55:06,15.08831242,0.0001925,53.2168,189.1723,43.9209,316.1936,-7.0229e-05,-1.405e-05,0.0,0 STARLINK-4616,1 53734U 22107AL  22341.28827533 -.00001405  00000-0 -70229-4 0  9990,2 53734  53.2168 189.1723 0001925  43.9209 316.1936 15.08831242 14541,6917.906999999997,95.438,541.104,538.44,0.0
53734.0,STARLINK-4616,PAYLOAD,2022-12-07 21:13:35,15.08840057,0.0001953,53.2166,186.4963,45.4829,314.6323,-9.5732e-05,-1.811e-05,0.0,0 STARLINK-4616,1 53734U 22107AL  22341.88443299 -.00001811  00000-0 -95732-4 0  9996,2 53734  53.2166 186.4963 0001953  45.4829 314.6323 15.08840057 14638,6917.88,95.438,541.096,538.394,0.0
53734.0,STARLINK-4616,PAYLOAD,2022-12-08 13:07:26,15.08837451,0.0001917,53.2168,183.5226,44.5516,315.563,5.0404e-05,5.14e-06,0.0,0 STARLINK-4616,1 53734U 22107AL  22342.54682983  .00000514  00000-0  50404-4 0  9999,2 53734  53.2168 183.5226 0001917  44.5516 315.5630 15.08837451 15369,6917.888000000001,95.438,541.0790000000002,538.427,0.0
53734.0,STARLINK-4616,PAYLOAD,2022-12-08 22:39:44,15.08837756,0.0001974,53.2164,181.7382,44.9204,315.1947,0.0001286999999999,1.761e-05,0.0,0 STARLINK-4616,1 53734U 22107AL  22342.94426755  .00001761  00000-0  12870-3 0  9995,2 53734  53.2164 181.7382 0001974  44.9204 315.1947 15.08837756 14790,6917.887,95.438,541.118,538.387,0.0
53734.0,STARLINK-4616,PAYLOAD,2022-12-09 06:36:40,15.08841839,0.000202,53.2166,180.2513,45.4218,314.6939,0.0001366,1.887e-05,0.0,0 STARLINK-4616,1 53734U 22107AL  22343.27546471  .00001887  00000-0  13660-3 0  9997,2 53734  53.2166 180.2513 0002020  45.4218 314.6939 15.08841839 15474,6917.875,95.437,541.137,538.342,0.0
53734.0,STARLINK-4616,PAYLOAD,2022-12-09 19:19:46,15.08833347,0.0001844,53.2167,177.8728,44.5914,315.5227,-2.9709e-05,-7.61e-06,0.0,0 STARLINK-4616,1 53734U 22107AL  22343.80539653 -.00000761  00000-0 -29709-4 0  9994,2 53734  53.2167 177.8728 0001844  44.5914 315.5227 15.08833347 14925,6917.901,95.438,541.0409999999998,538.49,0.0
53734.0,STARLINK-4616,PAYLOAD,2022-12-10 00:05:55,15.08835649,0.0001956,53.2176,176.9813,46.3535,313.7619,-1.0322e-05,-4.52e-06,0.0,0 STARLINK-4616,1 53734U 22107AL  22344.00411520 -.00000452  00000-0 -10322-4 0  9997,2 53734  53.2176 176.9813 0001956  46.3535 313.7619 15.08835649 15588,6917.894,95.438,541.112,538.406,0.0
53734.0,STARLINK-4616,PAYLOAD,2022-12-10 19:10:32,15.08844337,0.0001979,53.2179,173.4115,50.5921,309.5246,-2.9616e-05,-7.6e-06,0.0,0 STARLINK-4616,1 53734U 22107AL  22344.79899052 -.00000760  00000-0 -29616-4 0  9991,2 53734  53.2179 173.4115 0001979  50.5921 309.5246 15.08844337 15076,6917.8669999999975,95.437,541.101,538.363,0.0
53734.0,STARLINK-4616,PAYLOAD,2022-12-11 12:39:47,15.08839466,0.0001949,53.2186,170.1407,48.3046,311.8112,6.9289e-05,8.15e-06,0.0,0 STARLINK-4616,1 53734U 22107AL  22345.52762747  .00000815  00000-0  69289-4 0  9992,2 53734  53.2186 170.1407 0001949  48.3046 311.8112 15.08839466 15819,6917.882,95.438,541.095,538.399,0.0
